{
  "type": "FeatureCollection",
  "features": [
    {
      "type": "Feature",
      "properties": {
        "norad_id": 33924,
        "name": "COSMOS 2251 DEB",
        "group": "cosmos-2251-debris",
        "lat": 49.57330464070036,
        "lon": 51.034118910594714,
        "alt_km": 1340.6382130876573,
        "timestamp": "2025-12-24T18:55:56.464882+00:00",
        "meta_object_name": "COSMOS 2251 DEB",
        "meta_object_id": "1993-036ED",
        "meta_epoch": "2025-12-24T04:02:48.513984",
        "meta_mean_motion": 13.50238641,
        "meta_eccentricity": 0.04038151,
        "meta_inclination": 73.9131,
        "meta_ra_of_asc_node": 251.8306,
        "meta_arg_of_pericenter": 285.266,
        "meta_mean_anomaly": 70.4152,
        "meta_ephemeris_type": 0,
        "meta_classification_type": "U",
        "meta_norad_cat_id": 33924,
        "meta_element_set_no": 999,
        "meta_rev_at_epoch": 82893,
        "meta_bstar": 0.00045397577,
        "meta_mean_motion_dot": 4.57e-06,
        "meta_mean_motion_ddot": 0,
        "tle_line1": "1 33924U 93036ED  25358.16861706  .00000457  00000+0  45398-3 0  9997",
        "tle_line2": "2 33924  73.9131 251.8306 0403815 285.2660  70.4152 13.50238641828934"
      },
      "geometry": {
        "type": "Point",
        "coordinates": [
          51.034118910594714,
          49.57330464070036
        ]
      }
    },
    {
      "type": "Feature",
      "properties": {
        "norad_id": 33928,
        "name": "COSMOS 2251 DEB",
        "group": "cosmos-2251-debris",
        "lat": -61.25741459867731,
        "lon": -1.838887934090847,
        "alt_km": 701.6403535436439,
        "timestamp": "2025-12-24T18:55:56.464892+00:00",
        "meta_object_name": "COSMOS 2251 DEB",
        "meta_object_id": "1993-036EH",
        "meta_epoch": "2025-12-24T04:18:12.780576",
        "meta_mean_motion": 14.47425087,
        "meta_eccentricity": 0.00619966,
        "meta_inclination": 73.9253,
        "meta_ra_of_asc_node": 31.0267,
        "meta_arg_of_pericenter": 322.8172,
        "meta_mean_anomaly": 36.8699,
        "meta_ephemeris_type": 0,
        "meta_classification_type": "U",
        "meta_norad_cat_id": 33928,
        "meta_element_set_no": 999,
        "meta_rev_at_epoch": 88810,
        "meta_bstar": 0.00025015989,
        "meta_mean_motion_dot": 9.11e-06,
        "meta_mean_motion_ddot": 0,
        "tle_line1": "1 33928U 93036EH  25358.17931459  .00000911  00000+0  25016-3 0  9995",
        "tle_line2": "2 33928  73.9253  31.0267 0061996 322.8172  36.8699 14.47425087888109"
      },
      "geometry": {
        "type": "Point",
        "coordinates": [
          -1.838887934090847,
          -61.25741459867731
        ]
      }
    },
    {
      "type": "Feature",
      "properties": {
        "norad_id": 33932,
        "name": "COSMOS 2251 DEB",
        "group": "cosmos-2251-debris",
        "lat": 54.247851773947744,
        "lon": -42.874456177918816,
        "alt_km": 740.7075874448074,
        "timestamp": "2025-12-24T18:55:56.464902+00:00",
        "meta_object_name": "COSMOS 2251 DEB",
        "meta_object_id": "1993-036EM",
        "meta_epoch": "2025-12-24T03:38:55.657248",
        "meta_mean_motion": 14.38789901,
        "meta_eccentricity": 0.00358998,
        "meta_inclination": 74.0343,
        "meta_ra_of_asc_node": 294.8688,
        "meta_arg_of_pericenter": 8.2905,
        "meta_mean_anomaly": 351.8834,
        "meta_ephemeris_type": 0,
        "meta_classification_type": "U",
        "meta_norad_cat_id": 33932,
        "meta_element_set_no": 999,
        "meta_rev_at_epoch": 88162,
        "meta_bstar": 0.00044962915,
        "meta_mean_motion_dot": 1.366e-05,
        "meta_mean_motion_ddot": 0,
        "tle_line1": "1 33932U 93036EM  25358.15203307  .00001366  00000+0  44963-3 0  9999",
        "tle_line2": "2 33932  74.0343 294.8688 0035899   8.2905 351.8834 14.38789901881623"
      },
      "geometry": {
        "type": "Point",
        "coordinates": [
          -42.874456177918816,
          54.247851773947744
        ]
      }
    },
    {
      "type": "Feature",
      "properties": {
        "norad_id": 33933,
        "name": "COSMOS 2251 DEB",
        "group": "cosmos-2251-debris",
        "lat": 35.132469428335206,
        "lon": 49.755891414085326,
        "alt_km": 726.7947531848986,
        "timestamp": "2025-12-24T18:55:56.464912+00:00",
        "meta_object_name": "COSMOS 2251 DEB",
        "meta_object_id": "1993-036EN",
        "meta_epoch": "2025-12-23T19:18:54.872064",
        "meta_mean_motion": 14.33504975,
        "meta_eccentricity": 0.00709863,
        "meta_inclination": 74.0889,
        "meta_ra_of_asc_node": 39.9697,
        "meta_arg_of_pericenter": 45.0777,
        "meta_mean_anomaly": 315.6104,
        "meta_ephemeris_type": 0,
        "meta_classification_type": "U",
        "meta_norad_cat_id": 33933,
        "meta_element_set_no": 999,
        "meta_rev_at_epoch": 87943,
        "meta_bstar": 0.00024260297,
        "meta_mean_motion_dot": 6.65e-06,
        "meta_mean_motion_ddot": 0,
        "tle_line1": "1 33933U 93036EN  25357.80480176  .00000665  00000+0  24260-3 0  9991",
        "tle_line2": "2 33933  74.0889  39.9697 0070986  45.0777 315.6104 14.33504975879434"
      },
      "geometry": {
        "type": "Point",
        "coordinates": [
          49.755891414085326,
          35.132469428335206
        ]
      }
    },
    {
      "type": "Feature",
      "properties": {
        "norad_id": 33934,
        "name": "COSMOS 2251 DEB",
        "group": "cosmos-2251-debris",
        "lat": -5.401069981045308,
        "lon": -100.83489038194752,
        "alt_km": 688.7240331416033,
        "timestamp": "2025-12-24T18:55:56.464923+00:00",
        "meta_object_name": "COSMOS 2251 DEB",
        "meta_object_id": "1993-036EP",
        "meta_epoch": "2025-12-24T04:55:16.395168",
        "meta_mean_motion": 14.59198034,
        "meta_eccentricity": 0.00151673,
        "meta_inclination": 74.038,
        "meta_ra_of_asc_node": 78.7264,
        "meta_arg_of_pericenter": 202.2762,
        "meta_mean_anomaly": 157.7746,
        "meta_ephemeris_type": 0,
        "meta_classification_type": "U",
        "meta_norad_cat_id": 33934,
        "meta_element_set_no": 999,
        "meta_rev_at_epoch": 88906,
        "meta_bstar": 0.0008903667,
        "meta_mean_motion_dot": 4.178e-05,
        "meta_mean_motion_ddot": 0,
        "tle_line1": "1 33934U 93036EP  25358.20505087  .00004178  00000+0  89037-3 0  9992",
        "tle_line2": "2 33934  74.0380  78.7264 0015167 202.2762 157.7746 14.59198034889063"
      },
      "geometry": {
        "type": "Point",
        "coordinates": [
          -100.83489038194752,
          -5.401069981045308
        ]
      }
    },
    {
      "type": "Feature",
      "properties": {
        "norad_id": 33936,
        "name": "COSMOS 2251 DEB",
        "group": "cosmos-2251-debris",
        "lat": 15.848228972701746,
        "lon": -170.21197092851136,
        "alt_km": 673.5395045113773,
        "timestamp": "2025-12-24T18:55:56.464933+00:00",
        "meta_object_name": "COSMOS 2251 DEB",
        "meta_object_id": "1993-036ER",
        "meta_epoch": "2025-12-23T19:10:08.490432",
        "meta_mean_motion": 14.60333945,
        "meta_eccentricity": 0.00267842,
        "meta_inclination": 74.0179,
        "meta_ra_of_asc_node": 16.3464,
        "meta_arg_of_pericenter": 169.1135,
        "meta_mean_anomaly": 191.0617,
        "meta_ephemeris_type": 0,
        "meta_classification_type": "U",
        "meta_norad_cat_id": 33936,
        "meta_element_set_no": 999,
        "meta_rev_at_epoch": 89051,
        "meta_bstar": 0.00060550854,
        "meta_mean_motion_dot": 2.913e-05,
        "meta_mean_motion_ddot": 0,
        "tle_line1": "1 33936U 93036ER  25357.79870938  .00002913  00000+0  60551-3 0  9992",
        "tle_line2": "2 33936  74.0179  16.3464 0026784 169.1135 191.0617 14.60333945890517"
      },
      "geometry": {
        "type": "Point",
        "coordinates": [
          -170.21197092851136,
          15.848228972701746
        ]
      }
    },
    {
      "type": "Feature",
      "properties": {
        "norad_id": 33938,
        "name": "COSMOS 2251 DEB",
        "group": "cosmos-2251-debris",
        "lat": 26.77628249367819,
        "lon": -3.6209908730323033,
        "alt_km": 739.4540382805935,
        "timestamp": "2025-12-24T18:55:56.464943+00:00",
        "meta_object_name": "COSMOS 2251 DEB",
        "meta_object_id": "1993-036ET",
        "meta_epoch": "2025-12-24T00:44:03.903072",
        "meta_mean_motion": 14.46826184,
        "meta_eccentricity": 0.00168018,
        "meta_inclination": 74.0437,
        "meta_ra_of_asc_node": 186.0954,
        "meta_arg_of_pericenter": 267.3286,
        "meta_mean_anomaly": 257.0228,
        "meta_ephemeris_type": 0,
        "meta_classification_type": "U",
        "meta_norad_cat_id": 33938,
        "meta_element_set_no": 999,
        "meta_rev_at_epoch": 88563,
        "meta_bstar": 0.0004070942,
        "meta_mean_motion_dot": 1.451e-05,
        "meta_mean_motion_ddot": 0,
        "tle_line1": "1 33938U 93036ET  25358.03060073  .00001451  00000+0  40709-3 0  9992",
        "tle_line2": "2 33938  74.0437 186.0954 0016801 267.3286 257.0228 14.46826184885636"
      },
      "geometry": {
        "type": "Point",
        "coordinates": [
          -3.6209908730323033,
          26.77628249367819
        ]
      }
    }
  ]
}